[
    {
        "Altitude(m)": 704883.4269166365,
        "Argument of Periapsis(deg)": 0.011390121186627068,
        "Eccentricity": 0.0,
        "Inclination(deg)": 45.0,
        "Latitude(deg)": -8.241153186014959,
        "Longitude(deg)": 132.50890343480873,
        "Mean Anomaly(deg)": 191.53321664748086,
        "RAAN(deg)": 44.9892480585418,
        "Satellite Name": "Constellation 1 209",
        "Satellite Number": 209,
        "Semi-Major Axis(m)": 7083131.272910544,
        "Time(s)": 190
    },
    {
        "Altitude(m)": 704892.7671949636,
        "Argument of Periapsis(deg)": 0.011450069192872472,
        "Eccentricity": 0.0,
        "Inclination(deg)": 45.0,
        "Latitude(deg)": -8.283891710519296,
        "Longitude(deg)": 132.54853404730034,
        "Mean Anomaly(deg)": 191.5939177877307,
        "RAAN(deg)": 44.98919146937622,
        "Satellite Name": "Constellation 1 209",
        "Satellite Number": 209,
        "Semi-Major Axis(m)": 7083131.272910544,
        "Time(s)": 191
    },
    {
        "Altitude(m)": 704902.1251830439,
        "Argument of Periapsis(deg)": 0.01151001719911788,
        "Eccentricity": 0.0,
        "Inclination(deg)": 45.0,
        "Latitude(deg)": -8.326625265750222,
        "Longitude(deg)": 132.58817400400903,
        "Mean Anomaly(deg)": 191.6546189279806,
        "RAAN(deg)": 44.989134880210656,
        "Satellite Name": "Constellation 1 209",
        "Satellite Number": 209,
        "Semi-Major Axis(m)": 7083131.272910544,
        "Time(s)": 192
    },
    {
        "Altitude(m)": 704911.5008570787,
        "Argument of Periapsis(deg)": 0.011569965205363285,
        "Eccentricity": 0.0,
        "Inclination(deg)": 45.0,
        "Latitude(deg)": -8.369353825124307,
        "Longitude(deg)": 132.62782318702395,
        "Mean Anomaly(deg)": 191.71532006823054,
        "RAAN(deg)": 44.98907829104508,
        "Satellite Name": "Constellation 1 209",
        "Satellite Number": 209,
        "Semi-Major Axis(m)": 7083131.272910544,
        "Time(s)": 193
    },
    {
        "Altitude(m)": 704920.8941932105,
        "Argument of Periapsis(deg)": 0.01162991321160869,
        "Eccentricity": 0.0,
        "Inclination(deg)": 45.0,
        "Latitude(deg)": -8.412077362040947,
        "Longitude(deg)": 132.6674819827446,
        "Mean Anomaly(deg)": 191.77602120848047,
        "RAAN(deg)": 44.989021701879516,
        "Satellite Name": "Constellation 1 209",
        "Satellite Number": 209,
        "Semi-Major Axis(m)": 7083131.272910544,
        "Time(s)": 194
    },
    {
        "Altitude(m)": 704930.3051674786,
        "Argument of Periapsis(deg)": 0.011689861217854095,
        "Eccentricity": 0.0,
        "Inclination(deg)": 45.0,
        "Latitude(deg)": -8.454795849881112,
        "Longitude(deg)": 132.70715027329882,
        "Mean Anomaly(deg)": 191.83672234873026,
        "RAAN(deg)": 44.98896511271395,
        "Satellite Name": "Constellation 1 209",
        "Satellite Number": 209,
        "Semi-Major Axis(m)": 7083131.272910544,
        "Time(s)": 195
    },
    {
        "Altitude(m)": 704939.73375584,
        "Argument of Periapsis(deg)": 0.0117498092240995,
        "Eccentricity": 0.0,
        "Inclination(deg)": 45.0,
        "Latitude(deg)": -8.49750926200837,
        "Longitude(deg)": 132.74682810893137,
        "Mean Anomaly(deg)": 191.8974234889802,
        "RAAN(deg)": 44.98890852354838,
        "Satellite Name": "Constellation 1 209",
        "Satellite Number": 209,
        "Semi-Major Axis(m)": 7083131.272910544,
        "Time(s)": 196
    },
    {
        "Altitude(m)": 704949.1799341773,
        "Argument of Periapsis(deg)": 0.011809757230344905,
        "Eccentricity": 0.0,
        "Inclination(deg)": 45.0,
        "Latitude(deg)": -8.54021757176813,
        "Longitude(deg)": 132.78651553990656,
        "Mean Anomaly(deg)": 191.95812462923013,
        "RAAN(deg)": 44.98885193438281,
        "Satellite Name": "Constellation 1 209",
        "Satellite Number": 209,
        "Semi-Major Axis(m)": 7083131.272910544,
        "Time(s)": 197
    },
    {
        "Altitude(m)": 704958.6436782775,
        "Argument of Periapsis(deg)": 0.011869705236590313,
        "Eccentricity": 0.0,
        "Inclination(deg)": 45.0,
        "Latitude(deg)": -8.582920752487782,
        "Longitude(deg)": 132.82621261650846,
        "Mean Anomaly(deg)": 192.01882576948003,
        "RAAN(deg)": 44.98879534521724,
        "Satellite Name": "Constellation 1 209",
        "Satellite Number": 209,
        "Semi-Major Axis(m)": 7083131.272910544,
        "Time(s)": 198
    },
    {
        "Altitude(m)": 704968.1249638549,
        "Argument of Periapsis(deg)": 0.011929653242835719,
        "Eccentricity": 0.0,
        "Inclination(deg)": 45.0,
        "Latitude(deg)": -8.625618777476625,
        "Longitude(deg)": 132.86591938904104,
        "Mean Anomaly(deg)": 192.07952690972994,
        "RAAN(deg)": 44.98873875605167,
        "Satellite Name": "Constellation 1 209",
        "Satellite Number": 209,
        "Semi-Major Axis(m)": 7083131.272910544,
        "Time(s)": 199
    }
]